SL-4 R/B                
1 39679U 14021B   26039.53173631  .00010841  00000+0  24900-3 0  9992
2 39679  51.6065 119.4159 0099013 356.7201   3.3122 15.38245898651786
ALOS-2                  
1 39766U 14029A   26039.90723640  .00000834  00000+0  11845-3 0  9994
2 39766  97.9209 138.9186 0001502  94.7054 265.4329 14.79501042632614
YAOGAN-29               
1 41038U 15069A   26039.91606538  .00000622  00000+0  83338-4 0  9993
2 41038  98.0178  68.2644 0002924  83.6562 276.4985 14.82963286551616
ASTRO-H (HITOMI)        
1 41337U 16012A   26039.81125525  .00003678  00000+0  21625-3 0  9999
2 41337  30.9978 182.8737 0009836  42.5337 317.6062 15.09792683547867
HXMT (HUIYAN)           
1 42758U 17034A   26039.87774920  .00006382  00000+0  32434-3 0  9992
2 42758  43.0129 176.8074 0030876  50.8463 309.5121 15.17079356478161
CZ-2C R/B               
1 43521U 18054D   26039.69736363  .00330070  43549-4  75285-3 0  9998
2 43521  35.1281 142.7544 0012492  22.5709 337.5578 15.96216661424244
SAOCOM 1A               
1 43641U 18076A   26039.93346895  .00000692  00000+0  93430-4 0  9996
2 43641  97.8871 228.5138 0001376  83.7840 276.3530 14.82158802397101
H-2A R/B                
1 43682U 18084L   26039.57162904  .00018629  00000+0  46252-3 0  9995
2 43682  98.8761 250.7642 0026300 123.2086 237.1682 15.40063959401290
SAOCOM 1B               
1 46265U 20059A   26039.96470471  .00001026  00000+0  13542-3 0  9993
2 46265  97.8869 227.6429 0001391  83.5082 276.6289 14.82167903294493
CSS (TIANHE)            
1 48274U 21035A   26039.39486025  .00021492  00000+0  26814-3 0  9994
2 48274  41.4686  26.2335 0005046  28.7158 331.3958 15.59352670273033
COSMOS 2550             
1 48865U 21056A   26040.15203466  .00006436  00000+0  20130-3 0  9991
2 48865  67.1445 127.2543 0008434 270.1176  89.9012 15.33828059259084
CZ-2C R/B               
1 52794U 22058K   26039.36772077  .00031480  00000+0  49655-3 0  9990
2 52794  50.1884 108.8811 0042364  76.0462 284.5214 15.52173230205570
