CCSDS_OMM_VERS = 2.0
CREATION_DATE  = 
ORIGINATOR     = 

OBJECT_NAME    = SL-4 R/B
OBJECT_ID      = 2014-021B
CENTER_NAME    = EARTH
REF_FRAME      = TEME
TIME_SYSTEM    = UTC
MEAN_ELEMENT_THEORY = SGP/SGP4

EPOCH          = 2026-02-08T12:45:42.017184
MEAN_MOTION    = 15.38245898
ECCENTRICITY   = .0099013
INCLINATION    = 51.6065
RA_OF_ASC_NODE = 119.4159
ARG_OF_PERICENTER = 356.7201
MEAN_ANOMALY   = 3.3122

EPHEMERIS_TYPE = 0
CLASSIFICATION_TYPE = U
NORAD_CAT_ID   = 39679
ELEMENT_SET_NO = 999
REV_AT_EPOCH   = 65178
BSTAR          = .249E-3
MEAN_MOTION_DOT = .10841E-3
MEAN_MOTION_DDOT = 0

CCSDS_OMM_VERS = 2.0
CREATION_DATE  = 
ORIGINATOR     = 

OBJECT_NAME    = ALOS-2
OBJECT_ID      = 2014-029A
CENTER_NAME    = EARTH
REF_FRAME      = TEME
TIME_SYSTEM    = UTC
MEAN_ELEMENT_THEORY = SGP/SGP4

EPOCH          = 2026-02-08T21:46:25.224960
MEAN_MOTION    = 14.79501042
ECCENTRICITY   = .00015027
INCLINATION    = 97.9209
RA_OF_ASC_NODE = 138.9186
ARG_OF_PERICENTER = 94.7054
MEAN_ANOMALY   = 265.4329

EPHEMERIS_TYPE = 0
CLASSIFICATION_TYPE = U
NORAD_CAT_ID   = 39766
ELEMENT_SET_NO = 999
REV_AT_EPOCH   = 63261
BSTAR          = .118452E-3
MEAN_MOTION_DOT = .834E-5
MEAN_MOTION_DDOT = 0

CCSDS_OMM_VERS = 2.0
CREATION_DATE  = 
ORIGINATOR     = 

OBJECT_NAME    = YAOGAN-29
OBJECT_ID      = 2015-069A
CENTER_NAME    = EARTH
REF_FRAME      = TEME
TIME_SYSTEM    = UTC
MEAN_ELEMENT_THEORY = SGP/SGP4

EPOCH          = 2026-02-08T21:59:08.048832
MEAN_MOTION    = 14.82963286
ECCENTRICITY   = .00029248
INCLINATION    = 98.0178
RA_OF_ASC_NODE = 68.2644
ARG_OF_PERICENTER = 83.6562
MEAN_ANOMALY   = 276.4985

EPHEMERIS_TYPE = 0
CLASSIFICATION_TYPE = U
NORAD_CAT_ID   = 41038
ELEMENT_SET_NO = 999
REV_AT_EPOCH   = 55161
BSTAR          = .83337777E-4
MEAN_MOTION_DOT = .622E-5
MEAN_MOTION_DDOT = 0

CCSDS_OMM_VERS = 2.0
CREATION_DATE  = 
ORIGINATOR     = 

OBJECT_NAME    = ASTRO-H (HITOMI)
OBJECT_ID      = 2016-012A
CENTER_NAME    = EARTH
REF_FRAME      = TEME
TIME_SYSTEM    = UTC
MEAN_ELEMENT_THEORY = SGP/SGP4

EPOCH          = 2026-02-08T19:28:12.453600
MEAN_MOTION    = 15.09792683
ECCENTRICITY   = .00098369
INCLINATION    = 30.9978
RA_OF_ASC_NODE = 182.8737
ARG_OF_PERICENTER = 42.5337
MEAN_ANOMALY   = 317.6062

EPHEMERIS_TYPE = 0
CLASSIFICATION_TYPE = U
NORAD_CAT_ID   = 41337
ELEMENT_SET_NO = 999
REV_AT_EPOCH   = 54786
BSTAR          = .21625374E-3
MEAN_MOTION_DOT = .3678E-4
MEAN_MOTION_DDOT = 0

CCSDS_OMM_VERS = 2.0
CREATION_DATE  = 
ORIGINATOR     = 

OBJECT_NAME    = HXMT (HUIYAN)
OBJECT_ID      = 2017-034A
CENTER_NAME    = EARTH
REF_FRAME      = TEME
TIME_SYSTEM    = UTC
MEAN_ELEMENT_THEORY = SGP/SGP4

EPOCH          = 2026-02-08T21:03:57.530880
MEAN_MOTION    = 15.17079356
ECCENTRICITY   = .00308768
INCLINATION    = 43.0129
RA_OF_ASC_NODE = 176.8074
ARG_OF_PERICENTER = 50.8463
MEAN_ANOMALY   = 309.5121

EPHEMERIS_TYPE = 0
CLASSIFICATION_TYPE = U
NORAD_CAT_ID   = 42758
ELEMENT_SET_NO = 999
REV_AT_EPOCH   = 47816
BSTAR          = .32433529E-3
MEAN_MOTION_DOT = .6382E-4
MEAN_MOTION_DDOT = 0

CCSDS_OMM_VERS = 2.0
CREATION_DATE  = 
ORIGINATOR     = 

OBJECT_NAME    = CZ-2C R/B
OBJECT_ID      = 2018-054D
CENTER_NAME    = EARTH
REF_FRAME      = TEME
TIME_SYSTEM    = UTC
MEAN_ELEMENT_THEORY = SGP/SGP4

EPOCH          = 2026-02-08T16:44:12.217632
MEAN_MOTION    = 15.96216661
ECCENTRICITY   = .00124924
INCLINATION    = 35.1281
RA_OF_ASC_NODE = 142.7544
ARG_OF_PERICENTER = 22.5709
MEAN_ANOMALY   = 337.5578

EPHEMERIS_TYPE = 0
CLASSIFICATION_TYPE = U
NORAD_CAT_ID   = 43521
ELEMENT_SET_NO = 999
REV_AT_EPOCH   = 42424
BSTAR          = .75284669E-3
MEAN_MOTION_DOT = .33007E-2
MEAN_MOTION_DDOT = .43548624E-4

CCSDS_OMM_VERS = 2.0
CREATION_DATE  = 
ORIGINATOR     = 

OBJECT_NAME    = SAOCOM 1A
OBJECT_ID      = 2018-076A
CENTER_NAME    = EARTH
REF_FRAME      = TEME
TIME_SYSTEM    = UTC
MEAN_ELEMENT_THEORY = SGP/SGP4

EPOCH          = 2026-02-08T22:24:11.717280
MEAN_MOTION    = 14.82158802
ECCENTRICITY   = .00013764
INCLINATION    = 97.8871
RA_OF_ASC_NODE = 228.5138
ARG_OF_PERICENTER = 83.7840
MEAN_ANOMALY   = 276.3530

EPHEMERIS_TYPE = 0
CLASSIFICATION_TYPE = U
NORAD_CAT_ID   = 43641
ELEMENT_SET_NO = 999
REV_AT_EPOCH   = 39710
BSTAR          = .934298E-4
MEAN_MOTION_DOT = .692E-5
MEAN_MOTION_DDOT = 0

CCSDS_OMM_VERS = 2.0
CREATION_DATE  = 
ORIGINATOR     = 

OBJECT_NAME    = H-2A R/B
OBJECT_ID      = 2018-084L
CENTER_NAME    = EARTH
REF_FRAME      = TEME
TIME_SYSTEM    = UTC
MEAN_ELEMENT_THEORY = SGP/SGP4

EPOCH          = 2026-02-08T13:43:08.749056
MEAN_MOTION    = 15.40063959
ECCENTRICITY   = .00263
INCLINATION    = 98.8761
RA_OF_ASC_NODE = 250.7642
ARG_OF_PERICENTER = 123.2086
MEAN_ANOMALY   = 237.1682

EPHEMERIS_TYPE = 0
CLASSIFICATION_TYPE = U
NORAD_CAT_ID   = 43682
ELEMENT_SET_NO = 999
REV_AT_EPOCH   = 40129
BSTAR          = .46252E-3
MEAN_MOTION_DOT = .18629E-3
MEAN_MOTION_DDOT = 0

CCSDS_OMM_VERS = 2.0
CREATION_DATE  = 
ORIGINATOR     = 

OBJECT_NAME    = SAOCOM 1B
OBJECT_ID      = 2020-059A
CENTER_NAME    = EARTH
REF_FRAME      = TEME
TIME_SYSTEM    = UTC
MEAN_ELEMENT_THEORY = SGP/SGP4

EPOCH          = 2026-02-08T23:09:10.486944
MEAN_MOTION    = 14.82167903
ECCENTRICITY   = .00013912
INCLINATION    = 97.8869
RA_OF_ASC_NODE = 227.6429
ARG_OF_PERICENTER = 83.5082
MEAN_ANOMALY   = 276.6289

EPHEMERIS_TYPE = 0
CLASSIFICATION_TYPE = U
NORAD_CAT_ID   = 46265
ELEMENT_SET_NO = 999
REV_AT_EPOCH   = 29449
BSTAR          = .13541933E-3
MEAN_MOTION_DOT = .1026E-4
MEAN_MOTION_DDOT = 0

CCSDS_OMM_VERS = 2.0
CREATION_DATE  = 
ORIGINATOR     = 

OBJECT_NAME    = CSS (TIANHE)
OBJECT_ID      = 2021-035A
CENTER_NAME    = EARTH
REF_FRAME      = TEME
TIME_SYSTEM    = UTC
MEAN_ELEMENT_THEORY = SGP/SGP4

EPOCH          = 2026-02-08T09:28:35.925600
MEAN_MOTION    = 15.59352670
ECCENTRICITY   = .00050468
INCLINATION    = 41.4686
RA_OF_ASC_NODE = 26.2335
ARG_OF_PERICENTER = 28.7158
MEAN_ANOMALY   = 331.3958

EPHEMERIS_TYPE = 0
CLASSIFICATION_TYPE = U
NORAD_CAT_ID   = 48274
ELEMENT_SET_NO = 999
REV_AT_EPOCH   = 27303
BSTAR          = .26814317E-3
MEAN_MOTION_DOT = .21492E-3
MEAN_MOTION_DDOT = 0

CCSDS_OMM_VERS = 2.0
CREATION_DATE  = 
ORIGINATOR     = 

OBJECT_NAME    = COSMOS 2550
OBJECT_ID      = 2021-056A
CENTER_NAME    = EARTH
REF_FRAME      = TEME
TIME_SYSTEM    = UTC
MEAN_ELEMENT_THEORY = SGP/SGP4

EPOCH          = 2026-02-09T03:38:55.794624
MEAN_MOTION    = 15.33828059
ECCENTRICITY   = .0008434
INCLINATION    = 67.1445
RA_OF_ASC_NODE = 127.2543
ARG_OF_PERICENTER = 270.1176
MEAN_ANOMALY   = 89.9012

EPHEMERIS_TYPE = 0
CLASSIFICATION_TYPE = U
NORAD_CAT_ID   = 48865
ELEMENT_SET_NO = 999
REV_AT_EPOCH   = 25908
BSTAR          = .2013E-3
MEAN_MOTION_DOT = .6436E-4
MEAN_MOTION_DDOT = 0

CCSDS_OMM_VERS = 2.0
CREATION_DATE  = 
ORIGINATOR     = 

OBJECT_NAME    = CZ-2C R/B
OBJECT_ID      = 2022-058K
CENTER_NAME    = EARTH
REF_FRAME      = TEME
TIME_SYSTEM    = UTC
MEAN_ELEMENT_THEORY = SGP/SGP4

EPOCH          = 2026-02-08T08:49:31.074528
MEAN_MOTION    = 15.52173230
ECCENTRICITY   = .00423646
INCLINATION    = 50.1884
RA_OF_ASC_NODE = 108.8811
ARG_OF_PERICENTER = 76.0462
MEAN_ANOMALY   = 284.5214

EPHEMERIS_TYPE = 0
CLASSIFICATION_TYPE = U
NORAD_CAT_ID   = 52794
ELEMENT_SET_NO = 999
REV_AT_EPOCH   = 20557
BSTAR          = .49654932E-3
MEAN_MOTION_DOT = .3148E-3
MEAN_MOTION_DDOT = 0

